1 27424U 02022A   12056.20288691  .00000408  00000-0  10060-3 0  2226
2 27424 098.2245 358.3179 0001316 083.7094 276.4259 14.57109471521911